ONEWEB-0140             
1 47286U 20100AE  26012.06463179 -.00000084  00000+0 -27014-3 0  9997
2 47286  87.8928  21.6379 0001620  89.8922 270.2392 13.12445507244216
ONEWEB-0141             
1 47287U 20100AF  26012.03398044 -.00000153  00000+0 -45973-3 0  9994
2 47287  87.8923  21.6517 0001996  97.4042 262.7314 13.12440379244199
ONEWEB-0142             
1 47288U 20100AG  26012.09864445  .00000198  00000+0  51464-3 0  9993
2 47288  87.8926  21.6629 0001744 104.0977 256.0345 13.12443271244194
ONEWEB-0143             
1 47289U 20100AH  26012.03244249 -.00000128  00000+0 -39039-3 0  9991
2 47289  87.8927  21.6719 0001773  90.6983 269.4349 13.12441190244162
ONEWEB-0144             
1 47290U 20100AJ  26012.07986152  .00000456  00000+0  12321-2 0  9999
2 47290  87.8929  21.6312 0001482  99.6928 260.4368 13.12445051244094
ONEWEB-0145             
1 47291U 20100AK  26011.97481898 -.00000485  00000+0 -13825-2 0  9999
2 47291  87.8930  21.6912 0001704  92.4160 267.7163 13.12442509244277
ONEWEB-0146             
1 47292U 20100AL  26011.97144667 -.00000379  00000+0 -10888-2 0  9998
2 47292  87.8926  21.6770 0001962  80.9192 279.2159 13.12441729244184
ONEWEB-0147             
1 47293U 20100AM  26012.09003249  .00000457  00000+0  12357-2 0  9991
2 47293  87.8930  21.6327 0001487  83.9955 276.1343 13.12442840244096
ONEWEB-0115             
1 48042U 21025A   26011.93547443  .00000249  00000+0  64657-3 0  9992
2 48042  87.9006 351.2680 0001810  83.6869 276.4466 13.13469206233081
ONEWEB-0152             
1 48043U 21025B   26011.94901887 -.00000081  00000+0 -25536-3 0  9999
2 48043  87.8999 351.2698 0001829  80.4468 279.6868 13.13469222233046
ONEWEB-0153             
1 48044U 21025C   26012.30789967  .00000395  00000+0  10463-2 0  9992
2 48044  87.8997 351.2051 0001709  86.5588 273.5737 13.13470723233085
ONEWEB-0154             
1 48045U 21025D   26012.30451136  .00000538  00000+0  14377-2 0  9994
2 48045  87.9000 351.2022 0001721  83.9072 276.2253 13.13470860233044
ONEWEB-0116             
1 48046U 21025E   26011.96255580 -.00000260  00000+0 -74689-3 0  9998
2 48046  87.9000 351.2556 0001837  79.9591 280.1745 13.13469959233144
ONEWEB-0150             
1 48047U 21025F   26011.93885188  .00000168  00000+0  42542-3 0  9997
2 48047  87.9006 351.2566 0001893  88.6011 271.5335 13.13470702233033
ONEWEB-0107             
1 48048U 21025G   26012.01673524  .00000125  00000+0  30833-3 0  9990
2 48048  87.9003 351.2373 0001624  91.9347 268.1968 13.13468728233026
ONEWEB-0101             
1 48049U 21025H   26011.90330553 -.00000037  00000+0 -13599-3 0  9994
2 48049  87.8994 351.2908 0001586  84.5960 275.5350 13.13470548232989
