[{"OBJECT_NAME":"ONEWEB-0140","OBJECT_ID":"2020-100AE","EPOCH":"2026-01-12T01:33:04.186656","MEAN_MOTION":13.12445507,"ECCENTRICITY":0.00016205,"INCLINATION":87.8928,"RA_OF_ASC_NODE":21.6379,"ARG_OF_PERICENTER":89.8922,"MEAN_ANOMALY":270.2392,"EPHEMERIS_TYPE":0,"CLASSIFICATION_TYPE":"U","NORAD_CAT_ID":47286,"ELEMENT_SET_NO":999,"REV_AT_EPOCH":24421,"BSTAR":-0.00027014107,"MEAN_MOTION_DOT":-8.4e-7,"MEAN_MOTION_DDOT":0},{"OBJECT_NAME":"ONEWEB-0141","OBJECT_ID":"2020-100AF","EPOCH":"2026-01-12T00:48:55.910016","MEAN_MOTION":13.12440379,"ECCENTRICITY":0.00019963,"INCLINATION":87.8923,"RA_OF_ASC_NODE":21.6517,"ARG_OF_PERICENTER":97.4042,"MEAN_ANOMALY":262.7314,"EPHEMERIS_TYPE":0,"CLASSIFICATION_TYPE":"U","NORAD_CAT_ID":47287,"ELEMENT_SET_NO":999,"REV_AT_EPOCH":24419,"BSTAR":-0.00045972546,"MEAN_MOTION_DOT":-1.53e-6,"MEAN_MOTION_DDOT":0},{"OBJECT_NAME":"ONEWEB-0142","OBJECT_ID":"2020-100AG","EPOCH":"2026-01-12T02:22:02.880480","MEAN_MOTION":13.12443271,"ECCENTRICITY":0.00017447,"INCLINATION":87.8926,"RA_OF_ASC_NODE":21.6629,"ARG_OF_PERICENTER":104.0977,"MEAN_ANOMALY":256.0345,"EPHEMERIS_TYPE":0,"CLASSIFICATION_TYPE":"U","NORAD_CAT_ID":47288,"ELEMENT_SET_NO":999,"REV_AT_EPOCH":24419,"BSTAR":0.00051464088,"MEAN_MOTION_DOT":1.98e-6,"MEAN_MOTION_DDOT":0},{"OBJECT_NAME":"ONEWEB-0143","OBJECT_ID":"2020-100AH","EPOCH":"2026-01-12T00:46:43.031136","MEAN_MOTION":13.1244119,"ECCENTRICITY":0.00017739,"INCLINATION":87.8927,"RA_OF_ASC_NODE":21.6719,"ARG_OF_PERICENTER":90.6983,"MEAN_ANOMALY":269.4349,"EPHEMERIS_TYPE":0,"CLASSIFICATION_TYPE":"U","NORAD_CAT_ID":47289,"ELEMENT_SET_NO":999,"REV_AT_EPOCH":24416,"BSTAR":-0.00039038821,"MEAN_MOTION_DOT":-1.28e-6,"MEAN_MOTION_DDOT":0},{"OBJECT_NAME":"ONEWEB-0144","OBJECT_ID":"2020-100AJ","EPOCH":"2026-01-12T01:55:00.035328","MEAN_MOTION":13.12445051,"ECCENTRICITY":0.00014827,"INCLINATION":87.8929,"RA_OF_ASC_NODE":21.6312,"ARG_OF_PERICENTER":99.6928,"MEAN_ANOMALY":260.4368,"EPHEMERIS_TYPE":0,"CLASSIFICATION_TYPE":"U","NORAD_CAT_ID":47290,"ELEMENT_SET_NO":999,"REV_AT_EPOCH":24409,"BSTAR":0.0012320709,"MEAN_MOTION_DOT":4.56e-6,"MEAN_MOTION_DDOT":0},{"OBJECT_NAME":"ONEWEB-0145","OBJECT_ID":"2020-100AK","EPOCH":"2026-01-11T23:23:44.359872","MEAN_MOTION":13.12442509,"ECCENTRICITY":0.00017048,"INCLINATION":87.893,"RA_OF_ASC_NODE":21.6912,"ARG_OF_PERICENTER":92.416,"MEAN_ANOMALY":267.7163,"EPHEMERIS_TYPE":0,"CLASSIFICATION_TYPE":"U","NORAD_CAT_ID":47291,"ELEMENT_SET_NO":999,"REV_AT_EPOCH":24427,"BSTAR":-0.0013825025,"MEAN_MOTION_DOT":-4.85e-6,"MEAN_MOTION_DDOT":0},{"OBJECT_NAME":"ONEWEB-0146","OBJECT_ID":"2020-100AL","EPOCH":"2026-01-11T23:18:52.992288","MEAN_MOTION":13.12441729,"ECCENTRICITY":0.00019625,"INCLINATION":87.8926,"RA_OF_ASC_NODE":21.677,"ARG_OF_PERICENTER":80.9192,"MEAN_ANOMALY":279.2159,"EPHEMERIS_TYPE":0,"CLASSIFICATION_TYPE":"U","NORAD_CAT_ID":47292,"ELEMENT_SET_NO":999,"REV_AT_EPOCH":24418,"BSTAR":-0.0010887847,"MEAN_MOTION_DOT":-3.79e-6,"MEAN_MOTION_DDOT":0},{"OBJECT_NAME":"ONEWEB-0147","OBJECT_ID":"2020-100AM","EPOCH":"2026-01-12T02:09:38.807136","MEAN_MOTION":13.1244284,"ECCENTRICITY":0.00014878,"INCLINATION":87.893,"RA_OF_ASC_NODE":21.6327,"ARG_OF_PERICENTER":83.9955,"MEAN_ANOMALY":276.1343,"EPHEMERIS_TYPE":0,"CLASSIFICATION_TYPE":"U","NORAD_CAT_ID":47293,"ELEMENT_SET_NO":999,"REV_AT_EPOCH":24409,"BSTAR":0.0012356611,"MEAN_MOTION_DOT":4.57e-6,"MEAN_MOTION_DDOT":0},{"OBJECT_NAME":"ONEWEB-0115","OBJECT_ID":"2021-025A","EPOCH":"2026-01-11T22:27:04.990752","MEAN_MOTION":13.13469206,"ECCENTRICITY":0.00018108,"INCLINATION":87.9006,"RA_OF_ASC_NODE":351.268,"ARG_OF_PERICENTER":83.6869,"MEAN_ANOMALY":276.4466,"EPHEMERIS_TYPE":0,"CLASSIFICATION_TYPE":"U","NORAD_CAT_ID":48042,"ELEMENT_SET_NO":999,"REV_AT_EPOCH":23308,"BSTAR":0.00064656905,"MEAN_MOTION_DOT":2.49e-6,"MEAN_MOTION_DDOT":0},{"OBJECT_NAME":"ONEWEB-0152","OBJECT_ID":"2021-025B","EPOCH":"2026-01-11T22:46:35.230368","MEAN_MOTION":13.13469222,"ECCENTRICITY":0.00018291,"INCLINATION":87.8999,"RA_OF_ASC_NODE":351.2698,"ARG_OF_PERICENTER":80.4468,"MEAN_ANOMALY":279.6868,"EPHEMERIS_TYPE":0,"CLASSIFICATION_TYPE":"U","NORAD_CAT_ID":48043,"ELEMENT_SET_NO":999,"REV_AT_EPOCH":23304,"BSTAR":-0.00025535758,"MEAN_MOTION_DOT":-8.1e-7,"MEAN_MOTION_DDOT":0},{"OBJECT_NAME":"ONEWEB-0153","OBJECT_ID":"2021-025C","EPOCH":"2026-01-12T07:23:22.531488","MEAN_MOTION":13.13470723,"ECCENTRICITY":0.0001709,"INCLINATION":87.8997,"RA_OF_ASC_NODE":351.2051,"ARG_OF_PERICENTER":86.5588,"MEAN_ANOMALY":273.5737,"EPHEMERIS_TYPE":0,"CLASSIFICATION_TYPE":"U","NORAD_CAT_ID":48044,"ELEMENT_SET_NO":999,"REV_AT_EPOCH":23308,"BSTAR":0.001046309,"MEAN_MOTION_DOT":3.95e-6,"MEAN_MOTION_DDOT":0},{"OBJECT_NAME":"ONEWEB-0154","OBJECT_ID":"2021-025D","EPOCH":"2026-01-12T07:18:29.781504","MEAN_MOTION":13.1347086,"ECCENTRICITY":0.00017218,"INCLINATION":87.9,"RA_OF_ASC_NODE":351.2022,"ARG_OF_PERICENTER":83.9072,"MEAN_ANOMALY":276.2253,"EPHEMERIS_TYPE":0,"CLASSIFICATION_TYPE":"U","NORAD_CAT_ID":48045,"ELEMENT_SET_NO":999,"REV_AT_EPOCH":23304,"BSTAR":0.0014376763,"MEAN_MOTION_DOT":5.38e-6,"MEAN_MOTION_DDOT":0},{"OBJECT_NAME":"ONEWEB-0116","OBJECT_ID":"2021-025E","EPOCH":"2026-01-11T23:06:04.821120","MEAN_MOTION":13.13469959,"ECCENTRICITY":0.00018375,"INCLINATION":87.9,"RA_OF_ASC_NODE":351.2556,"ARG_OF_PERICENTER":79.9591,"MEAN_ANOMALY":280.1745,"EPHEMERIS_TYPE":0,"CLASSIFICATION_TYPE":"U","NORAD_CAT_ID":48046,"ELEMENT_SET_NO":999,"REV_AT_EPOCH":23314,"BSTAR":-0.00074689119,"MEAN_MOTION_DOT":-2.6e-6,"MEAN_MOTION_DDOT":0},{"OBJECT_NAME":"ONEWEB-0150","OBJECT_ID":"2021-025F","EPOCH":"2026-01-11T22:31:56.802432","MEAN_MOTION":13.13470702,"ECCENTRICITY":0.00018937,"INCLINATION":87.9006,"RA_OF_ASC_NODE":351.2566,"ARG_OF_PERICENTER":88.6011,"MEAN_ANOMALY":271.5335,"EPHEMERIS_TYPE":0,"CLASSIFICATION_TYPE":"U","NORAD_CAT_ID":48047,"ELEMENT_SET_NO":999,"REV_AT_EPOCH":23303,"BSTAR":0.00042542497,"MEAN_MOTION_DOT":1.68e-6,"MEAN_MOTION_DDOT":0},{"OBJECT_NAME":"ONEWEB-0107","OBJECT_ID":"2021-025G","EPOCH":"2026-01-12T00:24:05.924736","MEAN_MOTION":13.13468728,"ECCENTRICITY":0.00016241,"INCLINATION":87.9003,"RA_OF_ASC_NODE":351.2373,"ARG_OF_PERICENTER":91.9347,"MEAN_ANOMALY":268.1968,"EPHEMERIS_TYPE":0,"CLASSIFICATION_TYPE":"U","NORAD_CAT_ID":48048,"ELEMENT_SET_NO":999,"REV_AT_EPOCH":23302,"BSTAR":0.00030833188,"MEAN_MOTION_DOT":1.25e-6,"MEAN_MOTION_DDOT":0},{"OBJECT_NAME":"ONEWEB-0101","OBJECT_ID":"2021-025H","EPOCH":"2026-01-11T21:40:45.597792","MEAN_MOTION":13.13470548,"ECCENTRICITY":0.00015869,"INCLINATION":87.8994,"RA_OF_ASC_NODE":351.2908,"ARG_OF_PERICENTER":84.596,"MEAN_ANOMALY":275.535,"EPHEMERIS_TYPE":0,"CLASSIFICATION_TYPE":"U","NORAD_CAT_ID":48049,"ELEMENT_SET_NO":999,"REV_AT_EPOCH":23298,"BSTAR":-0.00013599042,"MEAN_MOTION_DOT":-3.7e-7,"MEAN_MOTION_DDOT":0}]
